{
  "type": "FeatureCollection",
  "features": [
    {
      "type": "Feature",
      "properties": {
        "norad_id": 34969,
        "name": "COSMOS 2251 DEB",
        "group": "cosmos-2251-debris",
        "lat": -13.513822633155058,
        "lon": -137.67756947618548,
        "alt_km": 738.4438585198486,
        "timestamp": "2025-12-04T09:47:37.915392+00:00",
        "meta_object_name": "COSMOS 2251 DEB",
        "meta_object_id": "1993-036AEY",
        "meta_epoch": "2025-11-27T22:39:52.818912",
        "meta_mean_motion": 14.32217313,
        "meta_eccentricity": 0.0074445,
        "meta_inclination": 74.0147,
        "meta_ra_of_asc_node": 50.1773,
        "meta_arg_of_pericenter": 186.867,
        "meta_mean_anomaly": 173.1469,
        "meta_ephemeris_type": 0,
        "meta_classification_type": "U",
        "meta_norad_cat_id": 34969,
        "meta_element_set_no": 999,
        "meta_rev_at_epoch": 64925,
        "meta_bstar": 0.00041332,
        "meta_mean_motion_dot": 1.123e-05,
        "meta_mean_motion_ddot": 0,
        "tle_line1": "1 34969U 93036AEY 25331.94436133  .00001123  00000+0  41332-3 0  9991",
        "tle_line2": "2 34969  74.0147  50.1773 0074445 186.8670 173.1469 14.32217313649253"
      },
      "geometry": {
        "type": "Point",
        "coordinates": [
          -137.67756947618548,
          -13.513822633155058
        ]
      }
    },
    {
      "type": "Feature",
      "properties": {
        "norad_id": 34971,
        "name": "COSMOS 2251 DEB",
        "group": "cosmos-2251-debris",
        "lat": -4.886130338722781,
        "lon": 122.26148472858031,
        "alt_km": 662.9993019124904,
        "timestamp": "2025-12-04T09:47:37.915402+00:00",
        "meta_object_name": "COSMOS 2251 DEB",
        "meta_object_id": "1993-036AFA",
        "meta_epoch": "2025-12-04T04:04:33.254112",
        "meta_mean_motion": 14.55612791,
        "meta_eccentricity": 0.0069969,
        "meta_inclination": 73.9782,
        "meta_ra_of_asc_node": 301.3068,
        "meta_arg_of_pericenter": 169.1818,
        "meta_mean_anomaly": 207.5997,
        "meta_ephemeris_type": 0,
        "meta_classification_type": "U",
        "meta_norad_cat_id": 34971,
        "meta_element_set_no": 999,
        "meta_rev_at_epoch": 66048,
        "meta_bstar": 0.00032049,
        "meta_mean_motion_dot": 1.415e-05,
        "meta_mean_motion_ddot": 0,
        "tle_line1": "1 34971U 93036AFA 25338.16982933  .00001415  00000+0  32049-3 0  9998",
        "tle_line2": "2 34971  73.9782 301.3068 0069969 169.1818 207.5997 14.55612791660480"
      },
      "geometry": {
        "type": "Point",
        "coordinates": [
          122.26148472858031,
          -4.886130338722781
        ]
      }
    },
    {
      "type": "Feature",
      "properties": {
        "norad_id": 34972,
        "name": "COSMOS 2251 DEB",
        "group": "cosmos-2251-debris",
        "lat": -70.58801671940023,
        "lon": 11.557728248695485,
        "alt_km": 645.7410635096157,
        "timestamp": "2025-12-04T09:47:37.915413+00:00",
        "meta_object_name": "COSMOS 2251 DEB",
        "meta_object_id": "1993-036AFB",
        "meta_epoch": "2025-12-03T06:34:34.182336",
        "meta_mean_motion": 14.72590746,
        "meta_eccentricity": 0.0034486,
        "meta_inclination": 73.9887,
        "meta_ra_of_asc_node": 68.345,
        "meta_arg_of_pericenter": 228.4328,
        "meta_mean_anomaly": 162.7226,
        "meta_ephemeris_type": 0,
        "meta_classification_type": "U",
        "meta_norad_cat_id": 34972,
        "meta_element_set_no": 999,
        "meta_rev_at_epoch": 87511,
        "meta_bstar": 0.0021523,
        "meta_mean_motion_dot": 0.0001382,
        "meta_mean_motion_ddot": 0,
        "tle_line1": "1 34972U 93036AFB 25337.27400674  .00013820  00000+0  21523-2 0  9994",
        "tle_line2": "2 34972  73.9887  68.3450 0034486 228.4328 162.7226 14.72590746875112"
      },
      "geometry": {
        "type": "Point",
        "coordinates": [
          11.557728248695485,
          -70.58801671940023
        ]
      }
    },
    {
      "type": "Feature",
      "properties": {
        "norad_id": 34976,
        "name": "COSMOS 2251 DEB",
        "group": "cosmos-2251-debris",
        "lat": -73.14728504781458,
        "lon": -146.77393651813955,
        "alt_km": 657.449345082804,
        "timestamp": "2025-12-04T09:47:37.915423+00:00",
        "meta_object_name": "COSMOS 2251 DEB",
        "meta_object_id": "1993-036AFF",
        "meta_epoch": "2025-12-04T00:43:17.032800",
        "meta_mean_motion": 14.76268016,
        "meta_eccentricity": 0.0047835,
        "meta_inclination": 74.057,
        "meta_ra_of_asc_node": 323.2864,
        "meta_arg_of_pericenter": 11.8607,
        "meta_mean_anomaly": 44.9697,
        "meta_ephemeris_type": 0,
        "meta_classification_type": "U",
        "meta_norad_cat_id": 34976,
        "meta_element_set_no": 999,
        "meta_rev_at_epoch": 88145,
        "meta_bstar": 0.0025726,
        "meta_mean_motion_dot": 0.00018179,
        "meta_mean_motion_ddot": 0,
        "tle_line1": "1 34976U 93036AFF 25338.03005825  .00018179  00000+0  25726-2 0  9993",
        "tle_line2": "2 34976  74.0570 323.2864 0047835  11.8607  44.9697 14.76268016881458"
      },
      "geometry": {
        "type": "Point",
        "coordinates": [
          -146.77393651813955,
          -73.14728504781458
        ]
      }
    },
    {
      "type": "Feature",
      "properties": {
        "norad_id": 34979,
        "name": "COSMOS 2251 DEB",
        "group": "cosmos-2251-debris",
        "lat": -46.75839538530375,
        "lon": 121.36872237668102,
        "alt_km": 662.6919014917939,
        "timestamp": "2025-12-04T09:47:37.915433+00:00",
        "meta_object_name": "COSMOS 2251 DEB",
        "meta_object_id": "1993-036AFJ",
        "meta_epoch": "2025-12-03T05:09:44.545824",
        "meta_mean_motion": 14.79022848,
        "meta_eccentricity": 0.0049249,
        "meta_inclination": 74.0398,
        "meta_ra_of_asc_node": 285.9966,
        "meta_arg_of_pericenter": 5.9578,
        "meta_mean_anomaly": 354.2172,
        "meta_ephemeris_type": 0,
        "meta_classification_type": "U",
        "meta_norad_cat_id": 34979,
        "meta_element_set_no": 999,
        "meta_rev_at_epoch": 88079,
        "meta_bstar": 0.0019442,
        "meta_mean_motion_dot": 0.00014666,
        "meta_mean_motion_ddot": 0,
        "tle_line1": "1 34979U 93036AFJ 25337.21509891  .00014666  00000+0  19442-2 0  9992",
        "tle_line2": "2 34979  74.0398 285.9966 0049249   5.9578 354.2172 14.79022848880793"
      },
      "geometry": {
        "type": "Point",
        "coordinates": [
          121.36872237668102,
          -46.75839538530375
        ]
      }
    },
    {
      "type": "Feature",
      "properties": {
        "norad_id": 34990,
        "name": "COSMOS 2251 DEB",
        "group": "cosmos-2251-debris",
        "lat": -1.689522973126593,
        "lon": -93.70131554982567,
        "alt_km": 743.5330728037206,
        "timestamp": "2025-12-04T09:47:37.915443+00:00",
        "meta_object_name": "COSMOS 2251 DEB",
        "meta_object_id": "1993-036AFN",
        "meta_epoch": "2025-11-30T02:35:36.793536",
        "meta_mean_motion": 14.42317714,
        "meta_eccentricity": 0.00161518,
        "meta_inclination": 74.0452,
        "meta_ra_of_asc_node": 274.7497,
        "meta_arg_of_pericenter": 338.715,
        "meta_mean_anomaly": 21.3332,
        "meta_ephemeris_type": 0,
        "meta_classification_type": "U",
        "meta_norad_cat_id": 34990,
        "meta_element_set_no": 999,
        "meta_rev_at_epoch": 87164,
        "meta_bstar": 0.00051741405,
        "meta_mean_motion_dot": 1.685e-05,
        "meta_mean_motion_ddot": 0,
        "tle_line1": "1 34990U 93036AFN 25334.10806474  .00001685  00000+0  51741-3 0  9993",
        "tle_line2": "2 34990  74.0452 274.7497 0016151 338.7150  21.3332 14.42317714871644"
      },
      "geometry": {
        "type": "Point",
        "coordinates": [
          -93.70131554982567,
          -1.689522973126593
        ]
      }
    },
    {
      "type": "Feature",
      "properties": {
        "norad_id": 34997,
        "name": "COSMOS 2251 DEB",
        "group": "cosmos-2251-debris",
        "lat": 65.20334548518457,
        "lon": 5.6388263730296,
        "alt_km": 776.6614846730472,
        "timestamp": "2025-12-04T09:47:37.915453+00:00",
        "meta_object_name": "COSMOS 2251 DEB",
        "meta_object_id": "1993-036AFV",
        "meta_epoch": "2025-11-29T18:09:59.976288",
        "meta_mean_motion": 14.45289096,
        "meta_eccentricity": 0.00981723,
        "meta_inclination": 73.8805,
        "meta_ra_of_asc_node": 335.6343,
        "meta_arg_of_pericenter": 312.7593,
        "meta_mean_anomaly": 46.5333,
        "meta_ephemeris_type": 0,
        "meta_classification_type": "U",
        "meta_norad_cat_id": 34997,
        "meta_element_set_no": 999,
        "meta_rev_at_epoch": 70559,
        "meta_bstar": 0.0014679127,
        "meta_mean_motion_dot": 5.442e-05,
        "meta_mean_motion_ddot": 0,
        "tle_line1": "1 34997U 93036AFV 25333.75694417  .00005442  00000+0  14679-2 0  9995",
        "tle_line2": "2 34997  73.8805 335.6343 0098172 312.7593  46.5333 14.45289096705597"
      },
      "geometry": {
        "type": "Point",
        "coordinates": [
          5.6388263730296,
          65.20334548518457
        ]
      }
    }
  ]
}